ENDUROSAT ONE           
1 43551U 98067NZ  20179.15545197  .00044338  00000-0  21086-3 0  9996
2 43551  51.6317 228.4065 0002241  62.6837 297.4393 15.82430641111915
EQUISAT                 
1 43552U 98067PA  20179.19268615  .00022067  00000-0  15023-3 0  9997
2 43552  51.6322 238.5862 0002774 111.4719 248.6576 15.74814062111748
AEROCUBE 12A            
1 43556U 18046C   20179.10473593  .00000117  00000-0  16375-4 0  9998
2 43556  51.6431  59.1842 0007964 335.2399  24.8199 15.29828994108856
AEROCUBE 12B            
1 43557U 18046D   20178.84068177  .00000094  00000-0  15690-4 0  9990
2 43557  51.6432  61.1589 0007984 333.7525  26.3050 15.29540956108756
UITMSAT-1               
1 43589U 98067PD  20179.45096860  .00031354  00000-0  18499-3 0  9996
2 43589  51.6331 234.8692 0001361 117.5572 242.5567 15.77866385107558
MAYA-1                  
1 43590U 98067PE  20179.44384390  .00032534  00000-0  19180-3 0  9994
2 43590  51.6289 234.8106 0001626 100.5325 259.5859 15.77863838107488
BHUTAN-1                
1 43591U 98067PF  20179.41526388  .00032307  00000-0  18905-3 0  9999
2 43591  51.6347 234.7077 0001456 118.7054 241.4093 15.78035157107487
SIRIUSSAT-1             
1 43595U 98067PG  20178.66214966  .00020058  00000-0  13455-3 0  9990
2 43595  51.6289 243.8863 0001933  47.0840 313.0322 15.75228347106478
SIRIUSSAT-2             
1 43596U 98067PH  20178.66115966  .00021027  00000-0  14152-3 0  9993
2 43596  51.6294 244.7069 0002205  49.8960 310.2232 15.75115190106468
TANUSHA-3               
1 43597U 98067PJ  20179.30764188  .00074623  00000-0  27569-3 0  9998
2 43597  51.6263 226.9704 0004221  15.8580 344.2556 15.87481173106752
SURFSAT                 
1 43614U 18070B   20179.41762006  .00001834  00000-0  47290-4 0  9991
2 43614  93.0206 158.7052 0012797 305.6530  54.3532 15.39232026100013
CP7 (DAVE)              
1 43615U 18070C   20178.99486260  .00001650  00000-0  42757-4 0  9998
2 43615  93.0208 158.5203 0012985 306.9656  53.0409 15.39082170 99945
ELFIN-B                 
1 43616U 18070D   20179.09188229  .00002385  00000-0  59006-4 0  9996
2 43616  93.0170 158.5059 0013277 308.3006  51.7054 15.40446192100004
ELFIN-A                 
1 43617U 18070E   20179.18899335  .00003000  00000-0  73748-4 0  9998
2 43617  93.0223 159.0659 0012496 304.3091  55.6980 15.40640333100024
CUBEBEL-1 (BSUSAT-1)    
1 43666U 18083E   20179.53041288  .00000685  00000-0  36728-4 0  9994
2 43666  97.4871 205.8951 0014032 331.3069 184.1725 15.18278722 92145
CICERO 10               
1 43690U 18088A   20179.16897435  .00000544  00000-0  23232-4 0  9998
2 43690  85.0384  71.9230 0012569 276.0295  83.9513 15.20244601 90214
IRVINE01                
1 43693U 18088D   20178.75685269  .00001451  00000-0  60028-4 0  9997
2 43693  85.0356  70.8565 0015359 256.3789 103.5743 15.22910623 90269
PROXIMA I               
1 43694U 18088E   20178.75559173  .00000582  00000-0  23648-4 0  9993
2 43694  85.0327  70.7036 0016948 246.9622 112.9833 15.21986947 90261
PROXIMA II              
1 43696U 18088G   20178.75380181  .00000577  00000-0  23418-4 0  9995
2 43696  85.0328  70.7085 0017005 246.9370 113.0080 15.21988819 90258
FACSAT-1                
1 43721U 18096C   20179.30116315  .00001021  00000-0  40858-4 0  9993
2 43721  97.4202 252.8218 0019306  88.6330 271.7120 15.27249325 87890
CENTAURI-2              
1 43722U 18096D   20178.86501627  .00001239  00000-0  48190-4 0  9996
2 43722  97.4215 252.6723 0019313  89.8244 270.5208 15.27781613 87838
INNOSAT-2               
1 43738U 18096V   20179.46412784  .00001933  00000-0  67856-4 0  9996
2 43738  97.4234 255.2797 0025105  94.1274 266.2836 15.30376494 88060
SIRION PATHFINDER-2     
1 43759U 18099B   20179.41527094  .00000564  00000-0  56305-4 0  9994
2 43759  97.7049 250.9054 0015258 144.9525 215.2702 14.95282918 85429
CORVUS-BC 4             
1 43767U 18099K   20179.15930198  .00000195  00000-0  23161-4 0  9991
2 43767  97.7031 250.0543 0012597 148.3971 211.8009 14.94729851 85354
MOVE-II                 
1 43780U 18099Y   20179.15994233  .00000504  00000-0  50703-4 0  9992
2 43780  97.7059 250.5880 0014254 156.0968 204.0918 14.95412054 85361
SPACEBEE-7              
1 43816U 18099BL  20179.16427864  .00000329  00000-0  34637-4 0  9997
2 43816  97.7072 250.9898 0014469 141.2397 218.9865 14.95704756 84940
SPACEBEE-5              
1 43817U 18099BM  20179.18052705  .00000217  00000-0  24292-4 0  9990
2 43817  97.7123 251.4673 0014220 141.7789 218.4444 14.96325291 84964
SPACEBEE-6              
1 43818U 18099BN  20179.46092115  .00000248  00000-0  27317-4 0  9996
2 43818  97.7082 251.4255 0014412 141.2006 219.0253 14.95894463 85142
SHIELDS 1               
1 43850U 18104B   20179.00262118  .00000370  00000-0  14629-4 0  9999
2 43850  85.0291 169.0432 0016434  42.2197 318.0306 15.21395108 84924
STF-1                   
1 43852U 18104D   20178.68741961  .00000797  00000-0  33725-4 0  9993
2 43852  85.0333 169.7989 0016630  56.3239 303.9585 15.21298743 84859
ZACUBE-2                
1 43907U 18111AH  20179.42871366  .00000303  00000-0  15040-4 0  9991
2 43907  97.2649  78.8928 0023182 106.9622 253.4159 15.24596974 83536
LUME 1                  
1 43908U 18111AJ  20178.82500364  .00000619  00000-0  27391-4 0  9994
2 43908  97.2651  78.4843 0022920 108.4508 251.9224 15.25052491 83450
AOBA VELOX-IV           
1 43940U 19003J   20179.41763632  .00001390  00000-0  58039-4 0  9996
2 43940  97.2270 230.3547 0023705 183.7826 176.3237 15.25040103 80160
CATSAT-2                
1 44029U 98067PV  20179.27274935  .00014106  00000-0  14288-3 0  9995
2 44029  51.6378 266.2631 0003372 118.5520 241.5816 15.65557520 80066
DELPHINI                
1 44030U 98067PW  20178.70975083  .00012238  00000-0  11998-3 0  9995
2 44030  51.6336 267.6344 0003044 110.7100 249.4223 15.66533758 79966
UNITE                   
1 44031U 98067PX  20178.97273612  .00006316  00000-0  78392-4 0  9996
2 44031  51.6373 273.9716 0003001 106.4790 253.6534 15.61469990 79908
CATSAT-1                
1 44033U 98067PZ  20178.88961876  .00011402  00000-0  11664-3 0  9994
2 44033  51.6382 268.2113 0003324 114.6039 245.5303 15.65541659 79915
RAAVANA-1               
1 44329U 98067QE  20179.32751725  .00007634  00000-0  10615-3 0  9999
2 44329  51.6397 284.6469 0005914  40.8273 319.3161 15.58060638 58545
UGUISU                  
1 44330U 98067QF  20179.01982089  .00006434  00000-0  90828-4 0  9998
2 44330  51.6379 286.3352 0005927  38.7698 321.3718 15.57965688 58479
NEPALISAT-1             
1 44331U 98067QG  20178.99911219  .00006493  00000-0  91231-4 0  9996
2 44331  51.6379 286.1992 0005960  41.7396 318.4050 15.58074201 58484
SPOOQY-1                
1 44332U 98067QH  20178.68241161  .00006044  00000-0  85713-4 0  9995
2 44332  51.6387 287.8322 0004940  43.7387 316.3996 15.57973935 58395
SPACEBEE-9              
1 44370U 19037F   20178.85794123  .00004647  00000-0  10882-3 0  9998
2 44370  45.0075  63.1624 0013627 240.7336 119.2192 15.43534083 56054
SPACEBEE-8              
1 44371U 19037G   20178.71070089  .00009465  00000-0  18452-3 0  9996
2 44371  45.0074  57.8570 0011816 239.9609 120.0110 15.47827729 56107
IOD-1 GEMS              
1 44385U 98067QK  20179.29621889  .00013598  00000-0  16829-3 0  9993
2 44385  51.6397 282.9852 0002553   2.6940 357.4067 15.60413961 56020
MOVE-IIB                
1 44398U 19038N   20178.81560173  .00000678  00000-0  42615-4 0  9991
2 44398  97.5365 139.9268 0026925  94.7370 265.6936 15.12334911 53990
SONATE                  
1 44400U 19038Q   20178.85231924  .00000338  00000-0  23390-4 0  9990
2 44400  97.5404 139.9782 0026947  93.4970 266.9343 15.11961629 53992
LUCKY-7                 
1 44406U 19038W   20178.99869316  .00000322  00000-0  22291-4 0  9995
2 44406  97.5398 140.2296 0026359  92.6575 267.7673 15.12227838 54011
BEESAT 9                
1 44412U 19038AC  20178.86448767  .00000477  00000-0  31129-4 0  9992
2 44412  97.5389 140.0783 0024427  98.3714 262.0287 15.12309317 53694
JAISAT-1                
1 44419U 19038F   20179.14635019  .00000481  00000-0  30985-4 0  9993
2 44419  97.5391 140.6283 0023282  96.6227 263.7654 15.12792835 54062
SWIATOWID               
1 44426U 98067QL  20179.44188259  .00012515  00000-0  14995-3 0  9995
2 44426  51.6423 281.5839 0002985 359.0944  48.4307 15.61353344 56076
KRAKSAT                 
1 44427U 98067QM  20179.37050105  .00004384  00000-0  68522-4 0  9997
2 44427  51.6442 287.7512 0003288 359.0504 105.1082 15.56075881 56020
VCC A                   
1 44428U 98067QN  20179.32419195  .00007176  00000-0  10257-3 0  9994
2 44428  51.6402 286.1689 0002625  18.1441 341.9644 15.57419373 56047
ENTRYSAT                
1 44429U 98067QP  20179.03092779  .00007805  00000-0  10692-3 0  9990
2 44429  51.6389 286.4324 0002365   6.5718 353.5305 15.58429365 56013
VCC C                   
1 44430U 98067QQ  20178.61221504  .00007917  00000-0  10375-3 0  9997
2 44430  51.6385 287.3953 0002227  19.1677 340.9399 15.59599406 54791
VCC B                   
1 44431U 98067QR  20179.00282242  .00006354  00000-0  91485-4 0  9994
2 44431  51.6395 287.7574 0002735  15.6692 344.4384 15.57454692 55933
ATL-1                   
1 44830U 19084G   20179.40620766  .00052847  00000-0  28668-3 0  9990
2 44830  96.9720  48.6646 0025192 192.7454 167.3181 15.79414161 32022
SMOG-P                  
1 44832U 19084J   20178.88752292  .00051803  00000-0  26369-3 0  9990
2 44832  96.9729  48.3310 0023906 192.9133 167.1527 15.80857052 31950
DUCHIFAT-3              
1 44854U 19089C   20179.28584925  .00000125  00000-0  16529-4 0  9999
2 44854  36.9681  40.2453 0006848 148.0158 212.1001 14.99073666 29774
ORBITAL FACTORY 2 (OF-2)
1 45113U 19071C   20179.39049589  .00001247  00000-0  49596-4 0  9999
2 45113  51.6449 315.5443 0013599  93.7868 266.4669 15.33384759 22650
